[Satellite]
VERSION=1.1
NAME=THOR AGENA D R/B
NICKNAME=THOR AGENA D R/B
TLE1=1 00733U 64002A   20157.94561118  .00000022  00000-0  25657-4 0  9998
TLE2=2 00733  99.0129  49.0461 0032728 265.3848  94.3596 14.32395650937594
STATUS=0
